[{"OBJECT_NAME":"UTMN 2 (RS27S)","OBJECT_ID":"2023-091AP","EPOCH":"2026-03-09T23:09:07.917408","MEAN_MOTION":15.29495965,"ECCENTRICITY":0.00097379,"INCLINATION":97.5194,"RA_OF_ASC_NODE":134.949,"ARG_OF_PERICENTER":76.0788,"MEAN_ANOMALY":284.1534,"EPHEMERIS_TYPE":0,"CLASSIFICATION_TYPE":"U","NORAD_CAT_ID":57203,"ELEMENT_SET_NO":999,"REV_AT_EPOCH":14936,"BSTAR":0.00056135701,"MEAN_MOTION_DOT":0.00016013,"MEAN_MOTION_DDOT":0},{"OBJECT_NAME":"STARLINK-35618","OBJECT_ID":"2025-259B","EPOCH":"2026-03-09T21:52:18.590592","MEAN_MOTION":15.2759128,"ECCENTRICITY":0.0001807,"INCLINATION":43.0012,"RA_OF_ASC_NODE":273.2348,"ARG_OF_PERICENTER":265.3083,"MEAN_ANOMALY":94.7563,"EPHEMERIS_TYPE":0,"CLASSIFICATION_TYPE":"U","NORAD_CAT_ID":66423,"ELEMENT_SET_NO":999,"REV_AT_EPOCH":1952,"BSTAR":0.0008495005,"MEAN_MOTION_DOT":0.00023196,"MEAN_MOTION_DDOT":0}]
